{
  "type": "FeatureCollection",
  "features": [
    {
      "type": "Feature",
      "properties": {
        "norad_id": 33765,
        "name": "COSMOS 2251 DEB",
        "group": "cosmos-2251-debris",
        "lat": 64.22995475831553,
        "lon": -60.307836636474356,
        "alt_km": 560.6727943643818,
        "timestamp": "2025-12-20T22:39:11.017557+00:00",
        "meta_object_name": "COSMOS 2251 DEB",
        "meta_object_id": "1993-036N",
        "meta_epoch": "2025-12-20T11:10:21.737568",
        "meta_mean_motion": 15.10394899,
        "meta_eccentricity": 0.00649508,
        "meta_inclination": 74.0082,
        "meta_ra_of_asc_node": 157.1259,
        "meta_arg_of_pericenter": 247.9026,
        "meta_mean_anomaly": 143.1669,
        "meta_ephemeris_type": 0,
        "meta_classification_type": "U",
        "meta_norad_cat_id": 33765,
        "meta_element_set_no": 999,
        "meta_rev_at_epoch": 89735,
        "meta_bstar": 0.0011004522,
        "meta_mean_motion_dot": 0.00019015,
        "meta_mean_motion_ddot": 0,
        "tle_line1": "1 33765U 93036N   25354.46552937  .00019015  00000+0  11005-2 0  9999",
        "tle_line2": "2 33765  74.0082 157.1259 0064950 247.9026 143.1669 15.10394899897352"
      },
      "geometry": {
        "type": "Point",
        "coordinates": [
          -60.307836636474356,
          64.22995475831553
        ]
      }
    },
    {
      "type": "Feature",
      "properties": {
        "norad_id": 33766,
        "name": "COSMOS 2251 DEB",
        "group": "cosmos-2251-debris",
        "lat": -72.02958449935393,
        "lon": 0.9874395631583984,
        "alt_km": 758.734679195587,
        "timestamp": "2025-12-20T22:39:11.017567+00:00",
        "meta_object_name": "COSMOS 2251 DEB",
        "meta_object_id": "1993-036P",
        "meta_epoch": "2025-12-20T13:04:03.984384",
        "meta_mean_motion": 14.34954534,
        "meta_eccentricity": 0.00645672,
        "meta_inclination": 74.1857,
        "meta_ra_of_asc_node": 120.8063,
        "meta_arg_of_pericenter": 322.0228,
        "meta_mean_anomaly": 37.6381,
        "meta_ephemeris_type": 0,
        "meta_classification_type": "U",
        "meta_norad_cat_id": 33766,
        "meta_element_set_no": 999,
        "meta_rev_at_epoch": 87857,
        "meta_bstar": 0.00035423279,
        "meta_mean_motion_dot": 1.007e-05,
        "meta_mean_motion_ddot": 0,
        "tle_line1": "1 33766U 93036P   25354.54449056  .00001007  00000+0  35423-3 0  9999",
        "tle_line2": "2 33766  74.1857 120.8063 0064567 322.0228  37.6381 14.34954534878571"
      },
      "geometry": {
        "type": "Point",
        "coordinates": [
          0.9874395631583984,
          -72.02958449935393
        ]
      }
    },
    {
      "type": "Feature",
      "properties": {
        "norad_id": 33768,
        "name": "COSMOS 2251 DEB",
        "group": "cosmos-2251-debris",
        "lat": 72.63585533910516,
        "lon": -39.369704853446905,
        "alt_km": 1044.807675016923,
        "timestamp": "2025-12-20T22:39:11.017576+00:00",
        "meta_object_name": "COSMOS 2251 DEB",
        "meta_object_id": "1993-036R",
        "meta_epoch": "2025-12-19T23:43:59.988000",
        "meta_mean_motion": 13.58460798,
        "meta_eccentricity": 0.0366672,
        "meta_inclination": 74.0669,
        "meta_ra_of_asc_node": 208.1685,
        "meta_arg_of_pericenter": 4.3314,
        "meta_mean_anomaly": 99.8501,
        "meta_ephemeris_type": 0,
        "meta_classification_type": "U",
        "meta_norad_cat_id": 33768,
        "meta_element_set_no": 999,
        "meta_rev_at_epoch": 83394,
        "meta_bstar": 0.00025605,
        "meta_mean_motion_dot": 2.68e-06,
        "meta_mean_motion_ddot": 0,
        "tle_line1": "1 33768U 93036R   25353.98888875  .00000268  00000+0  25605-3 0  9993",
        "tle_line2": "2 33768  74.0669 208.1685 0366672   4.3314  99.8501 13.58460798833946"
      },
      "geometry": {
        "type": "Point",
        "coordinates": [
          -39.369704853446905,
          72.63585533910516
        ]
      }
    },
    {
      "type": "Feature",
      "properties": {
        "norad_id": 33779,
        "name": "COSMOS 2251 DEB",
        "group": "cosmos-2251-debris",
        "lat": -33.24198397040888,
        "lon": -14.380662179941357,
        "alt_km": 654.5862795381199,
        "timestamp": "2025-12-20T22:39:11.017586+00:00",
        "meta_object_name": "COSMOS 2251 DEB",
        "meta_object_id": "1993-036U",
        "meta_epoch": "2025-12-20T12:08:28.406112",
        "meta_mean_motion": 14.70626115,
        "meta_eccentricity": 0.00163706,
        "meta_inclination": 74.0443,
        "meta_ra_of_asc_node": 155.6606,
        "meta_arg_of_pericenter": 188.6804,
        "meta_mean_anomaly": 228.0047,
        "meta_ephemeris_type": 0,
        "meta_classification_type": "U",
        "meta_norad_cat_id": 33779,
        "meta_element_set_no": 999,
        "meta_rev_at_epoch": 88642,
        "meta_bstar": 0.0015018369,
        "meta_mean_motion_dot": 9.136e-05,
        "meta_mean_motion_ddot": 0,
        "tle_line1": "1 33779U 93036U   25354.50588433  .00009136  00000+0  15018-2 0  9990",
        "tle_line2": "2 33779  74.0443 155.6606 0016370 188.6804 228.0047 14.70626115886428"
      },
      "geometry": {
        "type": "Point",
        "coordinates": [
          -14.380662179941357,
          -33.24198397040888
        ]
      }
    },
    {
      "type": "Feature",
      "properties": {
        "norad_id": 33782,
        "name": "COSMOS 2251 DEB",
        "group": "cosmos-2251-debris",
        "lat": 12.015013335960582,
        "lon": 78.88078734548023,
        "alt_km": 771.8463175748157,
        "timestamp": "2025-12-20T22:39:11.017596+00:00",
        "meta_object_name": "COSMOS 2251 DEB",
        "meta_object_id": "1993-036X",
        "meta_epoch": "2025-12-20T05:58:18.713280",
        "meta_mean_motion": 14.40465426,
        "meta_eccentricity": 0.0021018,
        "meta_inclination": 74.0331,
        "meta_ra_of_asc_node": 263.6592,
        "meta_arg_of_pericenter": 327.4695,
        "meta_mean_anomaly": 197.1536,
        "meta_ephemeris_type": 0,
        "meta_classification_type": "U",
        "meta_norad_cat_id": 33782,
        "meta_element_set_no": 999,
        "meta_rev_at_epoch": 88234,
        "meta_bstar": 0.0002698,
        "meta_mean_motion_dot": 8.33e-06,
        "meta_mean_motion_ddot": 0,
        "tle_line1": "1 33782U 93036X   25354.24882770  .00000833  00000+0  26980-3 0  9992",
        "tle_line2": "2 33782  74.0331 263.6592 0021018 327.4695 197.1536 14.40465426882347"
      },
      "geometry": {
        "type": "Point",
        "coordinates": [
          78.88078734548023,
          12.015013335960582
        ]
      }
    },
    {
      "type": "Feature",
      "properties": {
        "norad_id": 33785,
        "name": "COSMOS 2251 DEB",
        "group": "cosmos-2251-debris",
        "lat": -8.524517131215008,
        "lon": -133.67078244990253,
        "alt_km": 677.0895499555236,
        "timestamp": "2025-12-20T22:39:11.017606+00:00",
        "meta_object_name": "COSMOS 2251 DEB",
        "meta_object_id": "1993-036AA",
        "meta_epoch": "2025-12-20T14:10:16.342752",
        "meta_mean_motion": 14.70644689,
        "meta_eccentricity": 0.00230146,
        "meta_inclination": 73.867,
        "meta_ra_of_asc_node": 44.5353,
        "meta_arg_of_pericenter": 342.4192,
        "meta_mean_anomaly": 136.1559,
        "meta_ephemeris_type": 0,
        "meta_classification_type": "U",
        "meta_norad_cat_id": 33785,
        "meta_element_set_no": 999,
        "meta_rev_at_epoch": 88622,
        "meta_bstar": 0.0011292902,
        "meta_mean_motion_dot": 6.874e-05,
        "meta_mean_motion_ddot": 0,
        "tle_line1": "1 33785U 93036AA  25354.59046693  .00006874  00000+0  11293-2 0  9990",
        "tle_line2": "2 33785  73.8670  44.5353 0023014 342.4192 136.1559 14.70644689886223"
      },
      "geometry": {
        "type": "Point",
        "coordinates": [
          -133.67078244990253,
          -8.524517131215008
        ]
      }
    },
    {
      "type": "Feature",
      "properties": {
        "norad_id": 33789,
        "name": "COSMOS 2251 DEB",
        "group": "cosmos-2251-debris",
        "lat": 63.89524939758474,
        "lon": -142.18395712149163,
        "alt_km": 880.9946574771539,
        "timestamp": "2025-12-20T22:39:11.017615+00:00",
        "meta_object_name": "COSMOS 2251 DEB",
        "meta_object_id": "1993-036AE",
        "meta_epoch": "2025-12-20T06:49:46.750368",
        "meta_mean_motion": 13.88811641,
        "meta_eccentricity": 0.02398477,
        "meta_inclination": 74.0645,
        "meta_ra_of_asc_node": 74.6015,
        "meta_arg_of_pericenter": 188.5719,
        "meta_mean_anomaly": 229.9075,
        "meta_ephemeris_type": 0,
        "meta_classification_type": "U",
        "meta_norad_cat_id": 33789,
        "meta_element_set_no": 999,
        "meta_rev_at_epoch": 85200,
        "meta_bstar": 0.00050857821,
        "meta_mean_motion_dot": 7.5e-06,
        "meta_mean_motion_ddot": 0,
        "tle_line1": "1 33789U 93036AE  25354.28456887  .00000750  00000+0  50858-3 0  9998",
        "tle_line2": "2 33789  74.0645  74.6015 0239847 188.5719 229.9075 13.88811641852003"
      },
      "geometry": {
        "type": "Point",
        "coordinates": [
          -142.18395712149163,
          63.89524939758474
        ]
      }
    }
  ]
}